[{"OBJECT_NAME":"STARLINK-30169","OBJECT_ID":"2023-113E","EPOCH":"2026-03-09T04:11:41.659008","MEAN_MOTION":15.27589512,"ECCENTRICITY":0.00023859,"INCLINATION":43.0048,"RA_OF_ASC_NODE":4.7938,"ARG_OF_PERICENTER":269.555,"MEAN_ANOMALY":90.5028,"EPHEMERIS_TYPE":0,"CLASSIFICATION_TYPE":"U","NORAD_CAT_ID":57499,"ELEMENT_SET_NO":999,"REV_AT_EPOCH":14360,"BSTAR":-5.3048689e-5,"MEAN_MOTION_DOT":-1.723e-5,"MEAN_MOTION_DDOT":0},{"OBJECT_NAME":"OBJECT C","OBJECT_ID":"2024-018C","EPOCH":"2026-03-09T23:27:02.912256","MEAN_MOTION":14.40497628,"ECCENTRICITY":0.04251116,"INCLINATION":58.684,"RA_OF_ASC_NODE":211.7369,"ARG_OF_PERICENTER":351.7809,"MEAN_ANOMALY":7.6397,"EPHEMERIS_TYPE":0,"CLASSIFICATION_TYPE":"U","NORAD_CAT_ID":58851,"ELEMENT_SET_NO":999,"REV_AT_EPOCH":11099,"BSTAR":0.00023456096,"MEAN_MOTION_DOT":1.991e-5,"MEAN_MOTION_DDOT":0}]
